[{"OBJECT_NAME":"ACCENTURE-1","OBJECT_ID":"2025-276DF","EPOCH":"2026-03-09T18:24:17.968032","MEAN_MOTION":15.19190222,"ECCENTRICITY":0.0001861,"INCLINATION":97.4232,"RA_OF_ASC_NODE":144.079,"ARG_OF_PERICENTER":116.0656,"MEAN_ANOMALY":244.077,"EPHEMERIS_TYPE":0,"CLASSIFICATION_TYPE":"U","NORAD_CAT_ID":66767,"ELEMENT_SET_NO":999,"REV_AT_EPOCH":1533,"BSTAR":0.00024177646,"MEAN_MOTION_DOT":5.02e-5,"MEAN_MOTION_DDOT":0},{"OBJECT_NAME":"FENGYUN 1C DEB","OBJECT_ID":"1999-025DFV","EPOCH":"2026-03-08T16:36:39.334752","MEAN_MOTION":14.7561826,"ECCENTRICITY":0.02801674,"INCLINATION":99.0493,"RA_OF_ASC_NODE":138.4817,"ARG_OF_PERICENTER":72.5853,"MEAN_ANOMALY":290.5777,"EPHEMERIS_TYPE":0,"CLASSIFICATION_TYPE":"U","NORAD_CAT_ID":33684,"ELEMENT_SET_NO":999,"REV_AT_EPOCH":94255,"BSTAR":0.0012457497,"MEAN_MOTION_DOT":0.00016208,"MEAN_MOTION_DDOT":0}]
